CANX-5                  
1 40056U 14034D   26170.58211587  .00000672  00000+0  93471-4 0  9992
2 40056  98.3120  46.0268 0012988   9.7788 350.3674 14.81285489635690
UKUBE-1                 
1 40074U 14037F   26170.54821292  .00007009  00000+0  39481-3 0  9992
2 40074  98.4239 174.0682 0002749 127.9455 232.2022 15.13585482648918
BRITE-PL2 (HEWELIUSZ)   
1 40119U 14049B   26170.58252109  .00001660  00000+0  15858-3 0  9993
2 40119  97.9101 282.6009 0015364 101.3495 258.9452 14.94600826641807
AEROCUBE 5C             
1 40965U 15058B   26170.51766627  .00001654  00000+0  15535-3 0  9996
2 40965  64.7671 255.3406 0130857  62.3484 299.0840 14.91461880366002
AEROCUBE 7              
1 40966U 15058C   26170.57420318  .00002310  00000+0  19296-3 0  9995
2 40966  64.7613 237.3394 0120594  60.7422 300.5685 14.95736710366316
FOX-1A (AO-85)          
1 40967U 15058D   26170.56601712  .00001743  00000+0  16501-3 0  9999
2 40967  64.7756 271.5912 0130575  55.6754 305.6634 14.90978359113921
SINOD-D 1               
1 40968U 15058E   26170.55186933  .00002366  00000+0  19692-3 0  9998
2 40968  64.7746 251.5076 0119197  52.1415 309.0411 14.95917149117013
SNAP-3 ALICE            
1 40970U 15058G   26170.22482152  .00119396  00000+0  13971-2 0  9992
2 40970  64.7499  96.8866 0027580  11.6673 348.5106 15.60483812117206
LMRST-SAT               
1 40971U 15058H   26170.52192702  .00001551  00000+0  14944-3 0  9990
2 40971  64.7751 268.0704 0132188  57.7177 303.6661 14.90597588113902
SNAP-3 EDDIE            
1 40972U 15058J   26170.46933226  .00122718  00000+0  13634-2 0  9991
2 40972  64.7421  86.7482 0027230  15.2972 344.8991 15.61823790119385
PROPCUBE 3              
1 40973U 15058K   26170.55178061  .00001974  00000+0  17216-3 0  9991
2 40973  64.7678 245.1481 0124167  58.9778 302.3459 14.94267025115152
BISONSAT                
1 40974U 15058L   26170.40767934  .00011000  00000+0  53187-3 0  9997
2 40974  64.7582 166.4651 0079286  46.3425 314.4236 15.16233657115956
