
    {
        "ARG_OF_PERICENTER": 9.7788,
        "BSTAR": 9.3470949e-05,
        "CLASSIFICATION_TYPE": "U",
        "ECCENTRICITY": 0.00129885,
        "ELEMENT_SET_NO": 999,
        "EPHEMERIS_TYPE": 0,
        "EPOCH": "2026-06-19T13:58:14.811168",
        "INCLINATION": 98.312,
        "MEAN_ANOMALY": 350.3674,
        "MEAN_MOTION": 14.81285489,
        "MEAN_MOTION_DDOT": 0,
        "MEAN_MOTION_DOT": 6.72e-06,
        "NORAD_CAT_ID": 40056,
        "OBJECT_ID": "2014-034D",
        "OBJECT_NAME": "CANX-5",
        "RA_OF_ASC_NODE": 46.0268,
        "REV_AT_EPOCH": 63569
    },
    {
        "ARG_OF_PERICENTER": 127.9455,
        "BSTAR": 0.0003948138,
        "CLASSIFICATION_TYPE": "U",
        "ECCENTRICITY": 0.00027498,
        "ELEMENT_SET_NO": 999,
        "EPHEMERIS_TYPE": 0,
        "EPOCH": "2026-06-19T13:09:25.596288",
        "INCLINATION": 98.4239,
        "MEAN_ANOMALY": 232.2022,
        "MEAN_MOTION": 15.13585482,
        "MEAN_MOTION_DDOT": 0,
        "MEAN_MOTION_DOT": 7.009e-05,
        "NORAD_CAT_ID": 40074,
        "OBJECT_ID": "2014-037F",
        "OBJECT_NAME": "UKUBE-1",
        "RA_OF_ASC_NODE": 174.0682,
        "REV_AT_EPOCH": 64891
    },
    {
        "ARG_OF_PERICENTER": 101.3495,
        "BSTAR": 0.00015857707,
        "CLASSIFICATION_TYPE": "U",
        "ECCENTRICITY": 0.00153645,
        "ELEMENT_SET_NO": 999,
        "EPHEMERIS_TYPE": 0,
        "EPOCH": "2026-06-19T13:58:49.822176",
        "INCLINATION": 97.9101,
        "MEAN_ANOMALY": 258.9452,
        "MEAN_MOTION": 14.94600826,
        "MEAN_MOTION_DDOT": 0,
        "MEAN_MOTION_DOT": 1.66e-05,
        "NORAD_CAT_ID": 40119,
        "OBJECT_ID": "2014-049B",
        "OBJECT_NAME": "BRITE-PL2 (HEWELIUSZ)",
        "RA_OF_ASC_NODE": 282.6009,
        "REV_AT_EPOCH": 64180
    },
    {
        "ARG_OF_PERICENTER": 62.3484,
        "BSTAR": 0.00015534813,
        "CLASSIFICATION_TYPE": "U",
        "ECCENTRICITY": 0.01308571,
        "ELEMENT_SET_NO": 999,
        "EPHEMERIS_TYPE": 0,
        "EPOCH": "2026-06-19T12:25:26.365728",
        "INCLINATION": 64.7671,
        "MEAN_ANOMALY": 299.084,
        "MEAN_MOTION": 14.9146188,
        "MEAN_MOTION_DDOT": 0,
        "MEAN_MOTION_DOT": 1.654e-05,
        "NORAD_CAT_ID": 40965,
        "OBJECT_ID": "2015-058B",
        "OBJECT_NAME": "AEROCUBE 5C",
        "RA_OF_ASC_NODE": 255.3406,
        "REV_AT_EPOCH": 36600
    },
    {
        "ARG_OF_PERICENTER": 60.7422,
        "BSTAR": 0.00019296274,
        "CLASSIFICATION_TYPE": "U",
        "ECCENTRICITY": 0.01205945,
        "ELEMENT_SET_NO": 999,
        "EPHEMERIS_TYPE": 0,
        "EPOCH": "2026-06-19T13:46:51.154752",
        "INCLINATION": 64.7613,
        "MEAN_ANOMALY": 300.5685,
        "MEAN_MOTION": 14.9573671,
        "MEAN_MOTION_DDOT": 0,
        "MEAN_MOTION_DOT": 2.31e-05,
        "NORAD_CAT_ID": 40966,
        "OBJECT_ID": "2015-058C",
        "OBJECT_NAME": "AEROCUBE 7",
        "RA_OF_ASC_NODE": 237.3394,
        "REV_AT_EPOCH": 36631
    },
    {
        "ARG_OF_PERICENTER": 55.6754,
        "BSTAR": 0.00016501425,
        "CLASSIFICATION_TYPE": "U",
        "ECCENTRICITY": 0.01305756,
        "ELEMENT_SET_NO": 999,
        "EPHEMERIS_TYPE": 0,
        "EPOCH": "2026-06-19T13:35:03.879168",
        "INCLINATION": 64.7756,
        "MEAN_ANOMALY": 305.6634,
        "MEAN_MOTION": 14.90978359,
        "MEAN_MOTION_DDOT": 0,
        "MEAN_MOTION_DOT": 1.743e-05,
        "NORAD_CAT_ID": 40967,
        "OBJECT_ID": "2015-058D",
        "OBJECT_NAME": "FOX-1A (AO-85)",
        "RA_OF_ASC_NODE": 271.5912,
        "REV_AT_EPOCH": 11392
    },
    {
        "ARG_OF_PERICENTER": 52.1415,
        "BSTAR": 0.00019692009,
        "CLASSIFICATION_TYPE": "U",
        "ECCENTRICITY": 0.01191973,
        "ELEMENT_SET_NO": 999,
        "EPHEMERIS_TYPE": 0,
        "EPOCH": "2026-06-19T13:14:41.510112",
        "INCLINATION": 64.7746,
        "MEAN_ANOMALY": 309.0411,
        "MEAN_MOTION": 14.95917149,
        "MEAN_MOTION_DDOT": 0,
        "MEAN_MOTION_DOT": 2.366e-05,
        "NORAD_CAT_ID": 40968,
        "OBJECT_ID": "2015-058E",
        "OBJECT_NAME": "SINOD-D 1",
        "RA_OF_ASC_NODE": 251.5076,
        "REV_AT_EPOCH": 11701
    },
    {
        "ARG_OF_PERICENTER": 11.6673,
        "BSTAR": 0.0013970856,
        "CLASSIFICATION_TYPE": "U",
        "ECCENTRICITY": 0.00275805,
        "ELEMENT_SET_NO": 999,
        "EPHEMERIS_TYPE": 0,
        "EPOCH": "2026-06-19T05:23:44.579328",
        "INCLINATION": 64.7499,
        "MEAN_ANOMALY": 348.5106,
        "MEAN_MOTION": 15.60483812,
        "MEAN_MOTION_DDOT": 0,
        "MEAN_MOTION_DOT": 0.00119396,
        "NORAD_CAT_ID": 40970,
        "OBJECT_ID": "2015-058G",
        "OBJECT_NAME": "SNAP-3 ALICE",
        "RA_OF_ASC_NODE": 96.8866,
        "REV_AT_EPOCH": 11720
    },
    {
        "ARG_OF_PERICENTER": 57.7177,
        "BSTAR": 0.00014944283,
        "CLASSIFICATION_TYPE": "U",
        "ECCENTRICITY": 0.01321886,
        "ELEMENT_SET_NO": 999,
        "EPHEMERIS_TYPE": 0,
        "EPOCH": "2026-06-19T12:31:34.494528",
        "INCLINATION": 64.7751,
        "MEAN_ANOMALY": 303.6661,
        "MEAN_MOTION": 14.90597588,
        "MEAN_MOTION_DDOT": 0,
        "MEAN_MOTION_DOT": 1.551e-05,
        "NORAD_CAT_ID": 40971,
        "OBJECT_ID": "2015-058H",
        "OBJECT_NAME": "LMRST-SAT",
        "RA_OF_ASC_NODE": 268.0704,
        "REV_AT_EPOCH": 11390
    },
    {
        "ARG_OF_PERICENTER": 15.2972,
        "BSTAR": 0.0013634033,
        "CLASSIFICATION_TYPE": "U",
        "ECCENTRICITY": 0.002723,
        "ELEMENT_SET_NO": 999,
        "EPHEMERIS_TYPE": 0,
        "EPOCH": "2026-06-19T11:15:50.307264",
        "INCLINATION": 64.7421,
        "MEAN_ANOMALY": 344.8991,
        "MEAN_MOTION": 15.6182379,
        "MEAN_MOTION_DDOT": 0,
        "MEAN_MOTION_DOT": 0.00122718,
        "NORAD_CAT_ID": 40972,
        "OBJECT_ID": "2015-058J",
        "OBJECT_NAME": "SNAP-3 EDDIE",
        "RA_OF_ASC_NODE": 86.7482,
        "REV_AT_EPOCH": 11938
    },
    {
        "ARG_OF_PERICENTER": 58.9778,
        "BSTAR": 0.00017215615,
        "CLASSIFICATION_TYPE": "U",
        "ECCENTRICITY": 0.0124167,
        "ELEMENT_SET_NO": 999,
        "EPHEMERIS_TYPE": 0,
        "EPOCH": "2026-06-19T13:14:33.844704",
        "INCLINATION": 64.7678,
        "MEAN_ANOMALY": 302.3459,
        "MEAN_MOTION": 14.94267025,
        "MEAN_MOTION_DDOT": 0,
        "MEAN_MOTION_DOT": 1.974e-05,
        "NORAD_CAT_ID": 40973,
        "OBJECT_ID": "2015-058K",
        "OBJECT_NAME": "PROPCUBE 3",
        "RA_OF_ASC_NODE": 245.1481,
        "REV_AT_EPOCH": 11515
    },
    {
        "ARG_OF_PERICENTER": 46.3425,
        "BSTAR": 0.000531874,
        "CLASSIFICATION_TYPE": "U",
        "ECCENTRICITY": 0.00792866,
        "ELEMENT_SET_NO": 999,
        "EPHEMERIS_TYPE": 0,
        "EPOCH": "2026-06-19T09:47:03.494976",
        "INCLINATION": 64.7582,
        "MEAN_ANOMALY": 314.4236,
        "MEAN_MOTION": 15.16233657,
        "MEAN_MOTION_DDOT": 0,
        "MEAN_MOTION_DOT": 0.00011,
        "NORAD_CAT_ID": 40974,
        "OBJECT_ID": "2015-058L",
        "OBJECT_NAME": "BISONSAT",
        "RA_OF_ASC_NODE": 166.4651,
        "REV_AT_EPOCH": 11595
    }